NORAD_CAT_ID,OBJECT_NAME,OBJECT_TYPE,EPOCH,MEAN_MOTION,ECCENTRICITY,INCLINATION,RA_OF_ASC_NODE,ARG_OF_PERICENTER,MEAN_ANOMALY,BSTAR,MEAN_MOTION_DOT,MEAN_MOTION_DDOT,TLE_LINE0,TLE_LINE1,TLE_LINE2,SEMIMAJOR_AXIS,PERIOD,APOGEE,PERIGEE,DECAYED
50202.0,STARLINK-3256,PAYLOAD,2023-10-16 03:51:32,15.0886792,0.0001398,53.2164,209.5216,83.2576,276.8575,0.0017571,0.00027808,0.0,0 STARLINK-3256,1 50202U 21125AY  23289.16078842  .00027808  00000-0  17571-2 0  9998,2 50202  53.2164 209.5216 0001398  83.2576 276.8575 15.08867920104077,6917.795,95.436,540.627,538.693,0.0
50202.0,STARLINK-3256,PAYLOAD,2023-10-16 11:48:27,15.08857887,0.0001794,53.2172,208.0343,89.4158,270.704,0.00070743,0.00010994,0.0,0 STARLINK-3256,1 50202U 21125AY  23289.49198906  .00010994  00000-0  70743-3 0  9997,2 50202  53.2172 208.0343 0001794  89.4158 270.7040 15.08857887104122,6917.826,95.436,540.932,538.45,0.0
50202.0,STARLINK-3256,PAYLOAD,2023-10-16 21:20:46,15.08855321,0.0001565,53.2159,206.2515,90.6608,269.4563,0.00096598,0.00015125,0.0,0 STARLINK-3256,1 50202U 21125AY  23289.88942683  .00015125  00000-0  96598-3 0  9996,2 50202  53.2159 206.2515 0001565  90.6608 269.4563 15.08855321104663,6917.834,95.437,540.781,538.616,0.0
50202.0,STARLINK-3256,PAYLOAD,2023-10-17 11:39:14,15.08850383,0.0002303,53.2159,203.5745,82.5776,277.5478,0.00094163,0.00014734,0.0,0 STARLINK-3256,1 50202U 21125AY  23290.48558750  .00014734  00000-0  94163-3 0  9993,2 50202  53.2159 203.5745 0002303  82.5776 277.5478 15.08850383104270,6917.849,95.437,541.307,538.12,0.0
50202.0,STARLINK-3256,PAYLOAD,2023-10-18 01:57:42,15.08851986,0.0001402,53.2157,200.8988,86.2674,273.8478,0.0018371,0.0002908,0.0,0 STARLINK-3256,1 50202U 21125AY  23291.08174512  .00029080  00000-0  18371-2 0  9996,2 50202  53.2157 200.8988 0001402  86.2674 273.8478 15.08851986104846,6917.844,95.437,540.679,538.739,0.0
50202.0,STARLINK-3256,PAYLOAD,2023-10-18 11:30:01,15.0884431,0.0001663,53.2162,199.1153,83.444,276.6742,0.0010819,0.00016974,0.0,0 STARLINK-3256,1 50202U 21125AY  23291.47918591  .00016974  00000-0  10819-2 0  9999,2 50202  53.2162 199.1153 0001663  83.4440 276.6742 15.08844310104427,6917.867,95.437,540.883,538.582,0.0
50202.0,STARLINK-3256,PAYLOAD,2023-10-18 21:02:20,15.08844289,0.0001561,53.2153,197.3319,81.5738,278.5431,0.00033629,5.069e-05,0.0,0 STARLINK-3256,1 50202U 21125AY  23291.87662604  .00005069  00000-0  33629-3 0  9992,2 50202  53.2153 197.3319 0001561  81.5738 278.5431 15.08844289104967,6917.867,95.437,540.812,538.652,0.0
50202.0,STARLINK-3256,PAYLOAD,2023-10-19 00:13:06,15.08854598,0.0001576,53.2149,196.7343,101.7298,258.3871,0.00064744,0.00010035,0.0,0 STARLINK-3256,1 50202U 21125AY  23292.00910264  .00010035  00000-0  64744-3 0  9997,2 50202  53.2149 196.7343 0001576 101.7298 258.3871 15.08854598104502,6917.836,95.437,540.791,538.611,0.0
50202.0,STARLINK-3256,PAYLOAD,2023-10-19 17:42:20,15.08852963,0.0001299,53.2152,193.4656,95.2884,264.8256,0.000399,6.07e-05,0.0,0 STARLINK-3256,1 50202U 21125AY  23292.73774071  .00006070  00000-0  39900-3 0  9991,2 50202  53.2152 193.4656 0001299  95.2884 264.8256 15.08852963104612,6917.841,95.437,540.604,538.807,0.0
50202.0,STARLINK-3256,PAYLOAD,2023-10-19 22:28:30,15.08853835,0.0001254,53.2154,192.5728,100.3255,259.7879,0.00040666,6.192e-05,0.0,0 STARLINK-3256,1 50202U 21125AY  23292.93645877  .00006192  00000-0  40666-3 0  9990,2 50202  53.2154 192.5728 0001254 100.3255 259.7879 15.08853835105125,6917.838,95.437,540.571,538.836,0.0
50202.0,STARLINK-3256,PAYLOAD,2023-10-20 00:03:53,15.08855912,0.0001324,53.2152,192.2752,102.9791,257.1349,0.00041401,6.31e-05,0.0,0 STARLINK-3256,1 50202U 21125AY  23293.00269687  .00006310  00000-0  41401-3 0  9990,2 50202  53.2152 192.2752 0001324 102.9791 257.1349 15.08855912105131,6917.832,95.437,540.613,538.781,0.0
50202.0,STARLINK-3256,PAYLOAD,2023-10-20 20:43:54,15.0883049,0.0001287,53.2154,188.4077,101.928,258.1856,-8.1425e-05,-1.583e-05,0.0,0 STARLINK-3256,1 50202U 21125AY  23293.86382963 -.00001583  00000-0 -81425-4 0  9997,2 50202  53.2154 188.4077 0001287 101.9280 258.1856 15.08830490104788,6917.909,95.438,540.665,538.884,0.0
50202.0,STARLINK-3256,PAYLOAD,2023-10-20 22:19:18,15.08829821,0.0001384,53.2154,188.11,109.1775,250.9367,-7.3937e-05,-1.464e-05,0.0,0 STARLINK-3256,1 50202U 21125AY  23293.93006973 -.00001464  00000-0 -73937-4 0  9996,2 50202  53.2154 188.1100 0001384 109.1775 250.9367 15.08829821105277,6917.912,95.438,540.734,538.819,0.0
50202.0,STARLINK-3256,PAYLOAD,2023-10-21 09:27:00,15.08839789,0.0001269,53.2168,186.0304,102.9768,257.1366,0.00027233,4.049e-05,0.0,0 STARLINK-3256,1 50202U 21125AY  23294.39375032  .00004049  00000-0  27233-3 0  9999,2 50202  53.2168 186.0304 0001269 102.9768 257.1366 15.08839789105340,6917.881,95.438,540.624,538.868,0.0
50202.0,STARLINK-3256,PAYLOAD,2023-10-21 20:34:41,15.08852397,0.00012,53.2167,183.9485,100.2884,259.8243,0.00084958,0.00013264,0.0,0 STARLINK-3256,1 50202U 21125AY  23294.85742762  .00013264  00000-0  84958-3 0  9994,2 50202  53.2167 183.9485 0001200 100.2884 259.8243 15.08852397104937,6917.842,95.437,540.538,538.877,0.0
50202.0,STARLINK-3256,PAYLOAD,2023-10-21 22:10:04,15.08861337,0.0001233,53.2159,183.6509,103.0623,257.0507,0.0010432,0.00016363,0.0,0 STARLINK-3256,1 50202U 21125AY  23294.92366633  .00016363  00000-0  10432-2 0  9999,2 50202  53.2159 183.6509 0001233 103.0623 257.0507 15.08861337105422,6917.815,95.436,540.533,538.827,0.0
50202.0,STARLINK-3256,PAYLOAD,2023-10-22 09:17:46,15.08856789,0.0001299,53.2168,181.5707,91.089,269.0251,0.00029079,4.345e-05,0.0,0 STARLINK-3256,1 50202U 21125AY  23295.38734321  .00004345  00000-0  29079-3 0  9998,2 50202  53.2168 181.5707 0001299  91.0890 269.0251 15.08856789105012,6917.829,95.436,540.593,538.795,0.0
50202.0,STARLINK-3256,PAYLOAD,2023-10-22 20:25:29,15.08825917,0.000115,53.2158,179.4886,79.8052,280.307,-0.00032734,-5.492e-05,0.0,0 STARLINK-3256,1 50202U 21125AY  23295.85103150 -.00005492  00000-0 -32734-3 0  9998,2 50202  53.2158 179.4886 0001150  79.8052 280.3070 15.08825917105086,6917.923,95.438,540.584,538.993,0.0
50202.0,STARLINK-3256,PAYLOAD,2023-10-22 22:00:52,15.08814411,0.0001136,53.2159,179.1917,73.2873,286.8243,0.00082666,0.00012884,0.0,0 STARLINK-3256,1 50202U 21125AY  23295.91727492  .00012884  00000-0  82666-3 0  9996,2 50202  53.2159 179.1917 0001136  73.2873 286.8243 15.08814411105576,6917.959,95.439,540.609,539.038,0.0
50202.0,STARLINK-3256,PAYLOAD,2023-10-23 20:16:16,15.08847005,0.0001124,53.2161,175.0291,87.1911,272.9209,0.0012202,0.00019189,0.0,0 STARLINK-3256,1 50202U 21125AY  23296.84464009  .00019189  00000-0  12202-2 0  9994,2 50202  53.2161 175.0291 0001124  87.1911 272.9209 15.08847005105239,6917.859,95.437,540.502,538.946,0.0
50202.0,STARLINK-3256,PAYLOAD,2023-10-23 21:51:40,15.08846694,0.0001638,53.2167,174.7313,65.2818,294.8345,0.0011386,0.00017883,0.0,0 STARLINK-3256,1 50202U 21125AY  23296.91088242  .00017883  00000-0  11386-2 0  9994,2 50202  53.2167 174.7313 0001638  65.2818 294.8345 15.08846694105720,6917.86,95.437,540.858,538.592,0.0
50202.0,STARLINK-3256,PAYLOAD,2023-10-24 08:59:21,15.08854367,0.0001694,53.2165,172.6494,80.3266,279.7918,0.0007714,0.00012015,0.0,0 STARLINK-3256,1 50202U 21125AY  23297.37455944  .00012015  00000-0  77140-3 0  9995,2 50202  53.2165 172.6494 0001694  80.3266 279.7918 15.08854367105311,6917.836,95.437,540.873,538.53,0.0
50202.0,STARLINK-3256,PAYLOAD,2023-10-25 15:11:40,15.0887186,0.0001302,53.2167,166.9995,107.0812,253.0323,0.0013025,0.0002052,0.0,0 STARLINK-3256,1 50202U 21125AY  23298.63310894  .00020520  00000-0  13025-2 0  9990,2 50202  53.2167 166.9995 0001302 107.0812 253.0323 15.08871860105508,6917.783,95.436,540.549,538.747,0.0
50202.0,STARLINK-3256,PAYLOAD,2023-10-26 00:43:59,15.08848586,0.0001139,53.2165,165.215,84.6492,275.463,0.00056886,8.779e-05,0.0,0 STARLINK-3256,1 50202U 21125AY  23299.03055297  .00008779  00000-0  56886-3 0  9993,2 50202  53.2165 165.2150 0001139  84.6492 275.4630 15.08848586105567,6917.854,95.437,540.507,538.931,0.0
50202.0,STARLINK-3256,PAYLOAD,2023-10-26 21:24:00,15.0885399,0.0001279,53.2157,161.3491,84.1566,275.9572,0.00054067,8.331e-05,0.0,0 STARLINK-3256,1 50202U 21125AY  23299.89167092  .00008331  00000-0  54067-3 0  9997,2 50202  53.2157 161.3491 0001279  84.1566 275.9572 15.08853990106178,6917.838,95.437,540.587,538.818,0.0
50202.0,STARLINK-3256,PAYLOAD,2023-10-27 00:34:46,15.08857176,0.0001296,53.216,160.7537,86.6446,273.4694,0.00058985,9.116e-05,0.0,0 STARLINK-3256,1 50202U 21125AY  23300.02414922  .00009116  00000-0  58985-3 0  9997,2 50202  53.2160 160.7537 0001296  86.6446 273.4694 15.08857176105716,6917.828,95.436,540.589,538.796,0.0
50202.0,STARLINK-3256,PAYLOAD,2023-10-27 21:14:47,15.08848759,0.0001245,53.2161,156.8881,89.7544,270.3591,0.00028853,4.308e-05,0.0,0 STARLINK-3256,1 50202U 21125AY  23300.88526988  .00004308  00000-0  28853-3 0  9996,2 50202  53.2161 156.8881 0001245  89.7544 270.3591 15.08848759105845,6917.854,95.437,540.58,538.857,0.0
50202.0,STARLINK-3256,PAYLOAD,2023-10-28 21:05:34,15.0884077,0.0001212,53.2161,152.4267,91.8575,268.2556,1.8011e-06,-2.59e-06,0.0,0 STARLINK-3256,1 50202U 21125AY  23301.87887353 -.00000259  00000-0  18011-5 0  9991,2 50202  53.2161 152.4267 0001212  91.8575 268.2556 15.08840770105995,6917.878,95.438,540.581,538.905,0.0
50202.0,STARLINK-3256,PAYLOAD,2023-10-29 14:34:49,15.08839352,0.0001169,53.215,149.1578,98.7076,261.4048,0.00012768,1.745e-05,0.0,0 STARLINK-3256,1 50202U 21125AY  23302.60751508  .00001745  00000-0  12768-3 0  9996,2 50202  53.2150 149.1578 0001169  98.7076 261.4048 15.08839352106585,6917.882,95.438,540.556,538.939,0.0
50202.0,STARLINK-3256,PAYLOAD,2023-10-29 20:56:21,15.08853037,0.0001187,53.215,147.9683,100.0903,260.0223,5.9625e-05,6.62e-06,0.0,0 STARLINK-3256,1 50202U 21125AY  23302.87246838  .00000662  00000-0  59625-4 0  9991,2 50202  53.2150 147.9683 0001187 100.0903 260.0223 15.08853037106625,6917.841,95.437,540.527,538.884,0.0
